SAR-LUPE 2              
1 31797U 07030A   26117.24800770  .00034103  00000+0  73517-3 0  9998
2 31797  98.0994 215.6484 0009770 291.6150  68.4055 15.44465962 49068
SAPPHIRE                
1 39088U 13009C   26117.20004688  .00000108  00000+0  52722-4 0  9996
2 39088  98.4251 297.8691 0012013  45.5686 314.6481 14.35226295689269
PRAETORIAN SDA_602      
1 65565U 25203A   26117.28628162  .00000205  00000+0  17300-3 0  9991
2 65565  81.3040  57.9139 0005740 343.5473  16.5496 13.84334951 31651
PRAETORIAN SDA_603      
1 65566U 25203B   26117.29702646 -.00025951  00000+0 -23410-1 0  9997
2 65566  81.3012  57.7827 0009617 330.9398  29.1222 13.84092717 31665
PRAETORIAN SDA_604      
1 65567U 25203C   26117.28502188  .00000014  00000+0  17003-5 0  9992
2 65567  81.3059  58.1291 0005551 351.4879   8.6182 13.83038882 31649
PRAETORIAN SDA_605      
1 65568U 25203D   26117.26461196  .00000086  00000+0  67756-4 0  9992
2 65568  81.3026  57.8610 0007952 335.9193  24.1590 13.83426937 31657
PRAETORIAN SDA_606      
1 65569U 25203E   26117.24830854  .00000104  00000+0  83832-4 0  9996
2 65569  81.3062  58.0804 0005684 340.9084  19.1859 13.83534551 31644
PRAETORIAN SDA_607      
1 65570U 25203F   26117.28661624  .00000272  00000+0  23258-3 0  9990
2 65570  81.3043  57.7823 0008660 339.3113  20.7692 13.84319934 31666
PRAETORIAN SDA_608      
1 65571U 25203G   26117.24665946  .00000051  00000+0  34991-4 0  9990
2 65571  81.3014  57.9606 0006015 349.2521  10.8506 13.83808512 31647
PRAETORIAN SDA_609      
1 65572U 25203H   26117.26898283  .00000128  00000+0  10428-3 0  9998
2 65572  81.3060  57.9370 0006771 340.9191  19.1711 13.84303867 31652
PRAETORIAN SDA_610      
1 65573U 25203J   26117.22899134  .00000044  00000+0  29240-4 0  9991
2 65573  81.3015  57.9399 0006411 344.5575  15.5385 13.83914733 31646
PRAETORIAN SDA_611      
1 65574U 25203K   26117.28085749  .00000095  00000+0  75937-4 0  9997
2 65574  81.3014  58.0123 0005738 354.0731   6.0356 13.83302214 31642
PRAETORIAN SDA_612      
1 65575U 25203L   26117.26172203  .00000145  00000+0  11751-3 0  9997
2 65575  81.3037  57.7415 0009089 338.7721  21.3058 13.85030835 31669
PRAETORIAN SDA_613      
1 65576U 25203M   26117.27070611  .00000059  00000+0  43681-4 0  9991
2 65576  81.3007  57.9861 0005653 346.8491  13.2517 13.82946598 31648
PRAETORIAN SDA_614      
1 65577U 25203N   26117.24135087  .00000054  00000+0  37215-4 0  9999
2 65577  81.3021  57.8258 0006945 339.2105  20.8769 13.84770816 31662
PRAETORIAN SDA_615      
1 65578U 25203P   26117.27791387  .00000183  00000+0  15335-3 0  9995
2 65578  81.3032  57.7237 0008796 337.2157  22.8608 13.84428500 31666
