[{"OBJECT_NAME":"SAR-LUPE 2","OBJECT_ID":"2007-030A","EPOCH":"2026-04-27T05:57:07.865280","MEAN_MOTION":15.44465962,"ECCENTRICITY":0.00097706,"INCLINATION":98.0994,"RA_OF_ASC_NODE":215.6484,"ARG_OF_PERICENTER":291.615,"MEAN_ANOMALY":68.4055,"EPHEMERIS_TYPE":0,"CLASSIFICATION_TYPE":"U","NORAD_CAT_ID":31797,"ELEMENT_SET_NO":999,"REV_AT_EPOCH":4906,"BSTAR":0.00073517491,"MEAN_MOTION_DOT":0.00034103,"MEAN_MOTION_DDOT":0},{"OBJECT_NAME":"SAPPHIRE","OBJECT_ID":"2013-009C","EPOCH":"2026-04-27T04:48:04.050432","MEAN_MOTION":14.35226295,"ECCENTRICITY":0.00120132,"INCLINATION":98.4251,"RA_OF_ASC_NODE":297.8691,"ARG_OF_PERICENTER":45.5686,"MEAN_ANOMALY":314.6481,"EPHEMERIS_TYPE":0,"CLASSIFICATION_TYPE":"U","NORAD_CAT_ID":39088,"ELEMENT_SET_NO":999,"REV_AT_EPOCH":68926,"BSTAR":5.2722178e-5,"MEAN_MOTION_DOT":1.08e-6,"MEAN_MOTION_DDOT":0},{"OBJECT_NAME":"PRAETORIAN SDA_602","OBJECT_ID":"2025-203A","EPOCH":"2026-04-27T06:52:14.731968","MEAN_MOTION":13.84334951,"ECCENTRICITY":0.00057406,"INCLINATION":81.304,"RA_OF_ASC_NODE":57.9139,"ARG_OF_PERICENTER":343.5473,"MEAN_ANOMALY":16.5496,"EPHEMERIS_TYPE":0,"CLASSIFICATION_TYPE":"U","NORAD_CAT_ID":65565,"ELEMENT_SET_NO":999,"REV_AT_EPOCH":3165,"BSTAR":0.00017299993,"MEAN_MOTION_DOT":2.05e-6,"MEAN_MOTION_DDOT":0},{"OBJECT_NAME":"PRAETORIAN SDA_603","OBJECT_ID":"2025-203B","EPOCH":"2026-04-27T07:07:43.086144","MEAN_MOTION":13.84092717,"ECCENTRICITY":0.00096178,"INCLINATION":81.3012,"RA_OF_ASC_NODE":57.7827,"ARG_OF_PERICENTER":330.9398,"MEAN_ANOMALY":29.1222,"EPHEMERIS_TYPE":0,"CLASSIFICATION_TYPE":"U","NORAD_CAT_ID":65566,"ELEMENT_SET_NO":999,"REV_AT_EPOCH":3166,"BSTAR":-0.023410289,"MEAN_MOTION_DOT":-0.00025951,"MEAN_MOTION_DDOT":0},{"OBJECT_NAME":"PRAETORIAN SDA_604","OBJECT_ID":"2025-203C","EPOCH":"2026-04-27T06:50:25.890432","MEAN_MOTION":13.83038882,"ECCENTRICITY":0.00055512,"INCLINATION":81.3059,"RA_OF_ASC_NODE":58.1291,"ARG_OF_PERICENTER":351.4879,"MEAN_ANOMALY":8.6182,"EPHEMERIS_TYPE":0,"CLASSIFICATION_TYPE":"U","NORAD_CAT_ID":65567,"ELEMENT_SET_NO":999,"REV_AT_EPOCH":3164,"BSTAR":1.700289e-6,"MEAN_MOTION_DOT":1.4e-7,"MEAN_MOTION_DDOT":0},{"OBJECT_NAME":"PRAETORIAN SDA_605","OBJECT_ID":"2025-203D","EPOCH":"2026-04-27T06:21:02.473344","MEAN_MOTION":13.83426937,"ECCENTRICITY":0.00079522,"INCLINATION":81.3026,"RA_OF_ASC_NODE":57.861,"ARG_OF_PERICENTER":335.9193,"MEAN_ANOMALY":24.159,"EPHEMERIS_TYPE":0,"CLASSIFICATION_TYPE":"U","NORAD_CAT_ID":65568,"ELEMENT_SET_NO":999,"REV_AT_EPOCH":3165,"BSTAR":6.7756135e-5,"MEAN_MOTION_DOT":8.6e-7,"MEAN_MOTION_DDOT":0},{"OBJECT_NAME":"PRAETORIAN SDA_606","OBJECT_ID":"2025-203E","EPOCH":"2026-04-27T05:57:33.857856","MEAN_MOTION":13.83534551,"ECCENTRICITY":0.00056841,"INCLINATION":81.3062,"RA_OF_ASC_NODE":58.0804,"ARG_OF_PERICENTER":340.9084,"MEAN_ANOMALY":19.1859,"EPHEMERIS_TYPE":0,"CLASSIFICATION_TYPE":"U","NORAD_CAT_ID":65569,"ELEMENT_SET_NO":999,"REV_AT_EPOCH":3164,"BSTAR":8.3832424e-5,"MEAN_MOTION_DOT":1.04e-6,"MEAN_MOTION_DDOT":0},{"OBJECT_NAME":"PRAETORIAN SDA_607","OBJECT_ID":"2025-203F","EPOCH":"2026-04-27T06:52:43.643136","MEAN_MOTION":13.84319934,"ECCENTRICITY":0.00086606,"INCLINATION":81.3043,"RA_OF_ASC_NODE":57.7823,"ARG_OF_PERICENTER":339.3113,"MEAN_ANOMALY":20.7692,"EPHEMERIS_TYPE":0,"CLASSIFICATION_TYPE":"U","NORAD_CAT_ID":65570,"ELEMENT_SET_NO":999,"REV_AT_EPOCH":3166,"BSTAR":0.00023257537,"MEAN_MOTION_DOT":2.72e-6,"MEAN_MOTION_DDOT":0},{"OBJECT_NAME":"PRAETORIAN SDA_608","OBJECT_ID":"2025-203G","EPOCH":"2026-04-27T05:55:11.377344","MEAN_MOTION":13.83808512,"ECCENTRICITY":0.00060158,"INCLINATION":81.3014,"RA_OF_ASC_NODE":57.9606,"ARG_OF_PERICENTER":349.2521,"MEAN_ANOMALY":10.8506,"EPHEMERIS_TYPE":0,"CLASSIFICATION_TYPE":"U","NORAD_CAT_ID":65571,"ELEMENT_SET_NO":999,"REV_AT_EPOCH":3164,"BSTAR":3.4990661e-5,"MEAN_MOTION_DOT":5.1e-7,"MEAN_MOTION_DDOT":0},{"OBJECT_NAME":"PRAETORIAN SDA_609","OBJECT_ID":"2025-203H","EPOCH":"2026-04-27T06:27:20.116512","MEAN_MOTION":13.84303867,"ECCENTRICITY":0.00067714,"INCLINATION":81.306,"RA_OF_ASC_NODE":57.937,"ARG_OF_PERICENTER":340.9191,"MEAN_ANOMALY":19.1711,"EPHEMERIS_TYPE":0,"CLASSIFICATION_TYPE":"U","NORAD_CAT_ID":65572,"ELEMENT_SET_NO":999,"REV_AT_EPOCH":3165,"BSTAR":0.00010427874,"MEAN_MOTION_DOT":1.28e-6,"MEAN_MOTION_DDOT":0},{"OBJECT_NAME":"PRAETORIAN SDA_610","OBJECT_ID":"2025-203J","EPOCH":"2026-04-27T05:29:44.851776","MEAN_MOTION":13.83914733,"ECCENTRICITY":0.00064119,"INCLINATION":81.3015,"RA_OF_ASC_NODE":57.9399,"ARG_OF_PERICENTER":344.5575,"MEAN_ANOMALY":15.5385,"EPHEMERIS_TYPE":0,"CLASSIFICATION_TYPE":"U","NORAD_CAT_ID":65573,"ELEMENT_SET_NO":999,"REV_AT_EPOCH":3164,"BSTAR":2.9240321e-5,"MEAN_MOTION_DOT":4.4e-7,"MEAN_MOTION_DDOT":0},{"OBJECT_NAME":"PRAETORIAN SDA_611","OBJECT_ID":"2025-203K","EPOCH":"2026-04-27T06:44:26.087136","MEAN_MOTION":13.83302214,"ECCENTRICITY":0.00057387,"INCLINATION":81.3014,"RA_OF_ASC_NODE":58.0123,"ARG_OF_PERICENTER":354.0731,"MEAN_ANOMALY":6.0356,"EPHEMERIS_TYPE":0,"CLASSIFICATION_TYPE":"U","NORAD_CAT_ID":65574,"ELEMENT_SET_NO":999,"REV_AT_EPOCH":3164,"BSTAR":7.5937464e-5,"MEAN_MOTION_DOT":9.5e-7,"MEAN_MOTION_DDOT":0},{"OBJECT_NAME":"PRAETORIAN SDA_612","OBJECT_ID":"2025-203L","EPOCH":"2026-04-27T06:16:52.783392","MEAN_MOTION":13.85030835,"ECCENTRICITY":0.00090898,"INCLINATION":81.3037,"RA_OF_ASC_NODE":57.7415,"ARG_OF_PERICENTER":338.7721,"MEAN_ANOMALY":21.3058,"EPHEMERIS_TYPE":0,"CLASSIFICATION_TYPE":"U","NORAD_CAT_ID":65575,"ELEMENT_SET_NO":999,"REV_AT_EPOCH":3166,"BSTAR":0.00011750763,"MEAN_MOTION_DOT":1.45e-6,"MEAN_MOTION_DDOT":0},{"OBJECT_NAME":"PRAETORIAN SDA_613","OBJECT_ID":"2025-203M","EPOCH":"2026-04-27T06:29:49.007904","MEAN_MOTION":13.82946598,"ECCENTRICITY":0.0005653,"INCLINATION":81.3007,"RA_OF_ASC_NODE":57.9861,"ARG_OF_PERICENTER":346.8491,"MEAN_ANOMALY":13.2517,"EPHEMERIS_TYPE":0,"CLASSIFICATION_TYPE":"U","NORAD_CAT_ID":65576,"ELEMENT_SET_NO":999,"REV_AT_EPOCH":3164,"BSTAR":4.3680889e-5,"MEAN_MOTION_DOT":5.9e-7,"MEAN_MOTION_DDOT":0},{"OBJECT_NAME":"PRAETORIAN SDA_614","OBJECT_ID":"2025-203N","EPOCH":"2026-04-27T05:47:32.715168","MEAN_MOTION":13.84770816,"ECCENTRICITY":0.00069456,"INCLINATION":81.3021,"RA_OF_ASC_NODE":57.8258,"ARG_OF_PERICENTER":339.2105,"MEAN_ANOMALY":20.8769,"EPHEMERIS_TYPE":0,"CLASSIFICATION_TYPE":"U","NORAD_CAT_ID":65577,"ELEMENT_SET_NO":999,"REV_AT_EPOCH":3166,"BSTAR":3.7214695e-5,"MEAN_MOTION_DOT":5.4e-7,"MEAN_MOTION_DDOT":0},{"OBJECT_NAME":"PRAETORIAN SDA_615","OBJECT_ID":"2025-203P","EPOCH":"2026-04-27T06:40:11.758368","MEAN_MOTION":13.844285,"ECCENTRICITY":0.00087969,"INCLINATION":81.3032,"RA_OF_ASC_NODE":57.7237,"ARG_OF_PERICENTER":337.2157,"MEAN_ANOMALY":22.8608,"EPHEMERIS_TYPE":0,"CLASSIFICATION_TYPE":"U","NORAD_CAT_ID":65578,"ELEMENT_SET_NO":999,"REV_AT_EPOCH":3166,"BSTAR":0.0001533494,"MEAN_MOTION_DOT":1.83e-6,"MEAN_MOTION_DDOT":0}]
